{
  "type": "FeatureCollection",
  "features": [
    {
      "type": "Feature",
      "properties": {
        "norad_id": 19071,
        "name": "OSCAR 32",
        "group": "nnss",
        "lat": 48.121561574045415,
        "lon": -163.03181335584222,
        "alt_km": 1023.6202768835828,
        "timestamp": "2025-12-15T10:55:21.411414+00:00",
        "meta_object_name": "OSCAR 32",
        "meta_object_id": "1988-033B",
        "meta_epoch": "2025-12-14T14:58:17.400864",
        "meta_mean_motion": 13.27954211,
        "meta_eccentricity": 0.01885118,
        "meta_inclination": 90.3217,
        "meta_ra_of_asc_node": 16.5832,
        "meta_arg_of_pericenter": 161.5626,
        "meta_mean_anomaly": 319.4155,
        "meta_ephemeris_type": 0,
        "meta_classification_type": "U",
        "meta_norad_cat_id": 19071,
        "meta_element_set_no": 999,
        "meta_rev_at_epoch": 82290,
        "meta_bstar": 0.00016227404,
        "meta_mean_motion_dot": 9e-07,
        "meta_mean_motion_ddot": 0,
        "tle_line1": "1 19071U 88033B   25348.62381251  .00000090  00000+0  16227-3 0  9999",
        "tle_line2": "2 19071  90.3217  16.5832 0188511 161.5626 319.4155 13.27954211822902"
      },
      "geometry": {
        "type": "Point",
        "coordinates": [
          -163.03181335584222,
          48.121561574045415
        ]
      }
    },
    {
      "type": "Feature",
      "properties": {
        "norad_id": 19223,
        "name": "NOVA 2",
        "group": "nnss",
        "lat": -79.3351107478004,
        "lon": 78.20110323193035,
        "alt_km": 1180.4325491490526,
        "timestamp": "2025-12-15T10:55:21.411453+00:00",
        "meta_object_name": "NOVA 2",
        "meta_object_id": "1988-052A",
        "meta_epoch": "2025-12-14T19:34:33.640032",
        "meta_mean_motion": 13.22936089,
        "meta_eccentricity": 0.00304156,
        "meta_inclination": 89.9872,
        "meta_ra_of_asc_node": 78.2699,
        "meta_arg_of_pericenter": 11.2504,
        "meta_mean_anomaly": 106.1627,
        "meta_ephemeris_type": 0,
        "meta_classification_type": "U",
        "meta_norad_cat_id": 19223,
        "meta_element_set_no": 999,
        "meta_rev_at_epoch": 80975,
        "meta_bstar": 7.7581395e-05,
        "meta_mean_motion_dot": 4.1e-07,
        "meta_mean_motion_ddot": 0,
        "tle_line1": "1 19223U 88052A   25348.81566713  .00000041  00000+0  77581-4 0  9995",
        "tle_line2": "2 19223  89.9872  78.2699 0030415  11.2504 106.1627 13.22936089809754"
      },
      "geometry": {
        "type": "Point",
        "coordinates": [
          78.20110323193035,
          -79.3351107478004
        ]
      }
    },
    {
      "type": "Feature",
      "properties": {
        "norad_id": 19419,
        "name": "OSCAR 25",
        "group": "nnss",
        "lat": -8.71316245843334,
        "lon": -159.75203185607893,
        "alt_km": 1057.1446329848677,
        "timestamp": "2025-12-15T10:55:21.411466+00:00",
        "meta_object_name": "OSCAR 25",
        "meta_object_id": "1988-074A",
        "meta_epoch": "2025-12-14T14:53:41.072064",
        "meta_mean_motion": 13.42623602,
        "meta_eccentricity": 0.00945281,
        "meta_inclination": 90.0346,
        "meta_ra_of_asc_node": 20.2504,
        "meta_arg_of_pericenter": 240.3846,
        "meta_mean_anomaly": 237.9295,
        "meta_ephemeris_type": 0,
        "meta_classification_type": "U",
        "meta_norad_cat_id": 19419,
        "meta_element_set_no": 999,
        "meta_rev_at_epoch": 82665,
        "meta_bstar": 0.0001733704,
        "meta_mean_motion_dot": 1.09e-06,
        "meta_mean_motion_ddot": 0,
        "tle_line1": "1 19419U 88074A   25348.62061426  .00000109  00000+0  17337-3 0  9993",
        "tle_line2": "2 19419  90.0346  20.2504 0094528 240.3846 237.9295 13.42623602826659"
      },
      "geometry": {
        "type": "Point",
        "coordinates": [
          -159.75203185607893,
          -8.71316245843334
        ]
      }
    },
    {
      "type": "Feature",
      "properties": {
        "norad_id": 19420,
        "name": "OSCAR 31",
        "group": "nnss",
        "lat": 72.40626847121388,
        "lon": 20.489184171376557,
        "alt_km": 1157.8602984151676,
        "timestamp": "2025-12-15T10:55:21.411477+00:00",
        "meta_object_name": "OSCAR 31",
        "meta_object_id": "1988-074B",
        "meta_epoch": "2025-12-14T15:28:32.252736",
        "meta_mean_motion": 13.42584854,
        "meta_eccentricity": 0.0092856,
        "meta_inclination": 90.0363,
        "meta_ra_of_asc_node": 20.6008,
        "meta_arg_of_pericenter": 234.4438,
        "meta_mean_anomaly": 244.293,
        "meta_ephemeris_type": 0,
        "meta_classification_type": "U",
        "meta_norad_cat_id": 19420,
        "meta_element_set_no": 999,
        "meta_rev_at_epoch": 82676,
        "meta_bstar": 0.00015676281,
        "meta_mean_motion_dot": 9.9e-07,
        "meta_mean_motion_ddot": 0,
        "tle_line1": "1 19420U 88074B   25348.64481774  .00000099  00000+0  15676-3 0  9991",
        "tle_line2": "2 19420  90.0363  20.6008 0092856 234.4438 244.2930 13.42584854826760"
      },
      "geometry": {
        "type": "Point",
        "coordinates": [
          20.489184171376557,
          72.40626847121388
        ]
      }
    }
  ]
}